STARLINK-2648           
1 48679U 21044AT  24212.42562821  .00001058  00000+0  89901-4 0  9990
2 48679  53.0538 227.9494 0001259 102.4504 257.6626 15.06396154175333
STARLINK-2649           
1 48680U 21044AU  24212.42194227  .00000941  00000+0  82059-4 0  9990
2 48680  53.0544 227.9658 0001396  95.9618 264.1530 15.06396170175333
STARLINK-2725           
1 48681U 21044AV  24212.68643468  .00001877  00000+0  14486-3 0  9992
2 48681  53.0543 197.0198 0001282  93.3325 266.7811 15.06400282176689
STARLINK-2743           
1 48682U 21044AW  24212.21924048  .00001801  00000+0  13978-3 0  9990
2 48682  53.0538 189.0366 0001413  88.2291 271.8859 15.06396530175850
STARLINK-2756           
1 48683U 21044AX  24212.90480962  .00000085  00000+0  24619-4 0  9997
2 48683  53.0537 185.8088 0001433  93.7618 266.3535 15.06394582176802
STARLINK-2741           
1 48684U 21044AY  24212.26395609  .00001839  00000+0  14236-3 0  9991
2 48684  53.0535 204.0300 0001327  83.6406 276.4734 15.06393285175651
STARLINK-2751           
1 48685U 21044AZ  24212.21185809  .00000771  00000+0  70680-4 0  9996
2 48685  53.0535 188.9545 0001463  96.2327 263.8829 15.06388382175866
STARLINK-2629           
1 48686U 21044BA  24212.27223986  .00001948  00000+0  14962-3 0  9999
2 48686  53.0541 193.9169 0001334  94.1991 265.9150 15.06394808175795
STARLINK-2627           
1 48687U 21044BB  24212.24732824  .00000419  00000+0  47060-4 0  9991
2 48687  53.0539 183.7486 0001483  96.9083 263.2075 15.06390731175933
STARLINK-2742           
1 48688U 21044BC  24212.18466387  .00000735  00000+0  68226-4 0  9991
2 48688  53.0537 184.0320 0001395  93.0073 267.1075 15.06392976175927
STARLINK-2617           
1 48689U 21044BD  24212.25607846  .00001184  00000+0  98426-4 0  9991
2 48689  53.0542 188.6808 0001476  94.8459 265.2699 15.06390292175865
STARLINK-2740           
1 48690U 21044BE  24212.39521814  .00002671  00000+0  19821-3 0  9991
2 48690  53.0537 198.0855 0001428 101.1928 258.9221 15.06390865175741
STARLINK-2750           
1 48691U 21044BF  24212.23534951  .00001488  00000+0  11881-3 0  9994
2 48691  53.0541 193.8032 0001453  83.6023 276.5131 15.06393214175797
STARLINK-2752           
1 48692U 21044BG  24212.68504017  .00001994  00000+0  15272-3 0  9994
2 48692  53.0539 191.9059 0001454  86.8407 273.2748 15.06401044176706
STARLINK-2618           
1 48693U 21044BH  24212.22841201  .00000861  00000+0  76680-4 0  9997
2 48693  53.0536 198.8339 0001361  94.6541 265.4603 15.06392914175723
STARLINK-2748           
1 48694U 21044BJ  24212.39565850  .00002453  00000+0  18350-3 0  9997
2 48694  53.0544 203.0740 0001399  89.7858 270.3291 15.06400127175673
STARLINK-2616           
1 48695U 21044BK  24212.28603694  .00001653  00000+0  12987-3 0  9996
2 48695  53.0542 203.6258 0001247  85.7248 274.3883 15.06393365175668
STARLINK-2753           
1 48696U 21044BL  24212.40904435  .00000662  00000+0  63323-4 0  9998
2 48696  53.0548 208.0710 0001456 102.7377 257.3775 15.06394632175616
STARLINK-3003           
1 48879U 21059A   24212.58334491  .00891643  00000+0  97305-2 0  9997
2 48879  97.6572 337.9112 0001321  78.2762 346.3154 15.60881793170810
STARLINK-3004           
1 48880U 21059B   24212.81480411  .00005991  00000+0  47039-3 0  9992
2 48880  97.6594 336.4774 0001709  97.1225 263.0193 15.01276967170744
STARLINK-3005           
1 48881U 21059C   24212.60817997  .00002850  00000+0  22633-3 0  9997
2 48881  97.6599 336.2245 0001598  85.4199 274.7208 15.01276262170729
STARLINK-3096           
1 49131U 21082B   24212.40517760 -.00000639  00000+0 -45773-4 0  9991
2 49131  70.0003 295.2022 0002975 274.2972  85.7847 14.98330943158993
STARLINK-3090           
1 49132U 21082C   24212.77715203  .00000451  00000+0  45557-4 0  9994
2 49132  70.0019 334.2923 0002834 269.7221  90.3613 14.98342128158064
STARLINK-3077           
1 49133U 21082D   24212.63512682  .00001636  00000+0  14488-3 0  9990
2 49133  70.0020 334.6283 0002721 269.8489  90.2358 14.98336557158044
STARLINK-3078           
1 49134U 21082E   24212.63095542  .00001872  00000+0  16463-3 0  9999
2 49134  70.0025 334.6427 0002633 270.8216  89.2641 14.98322476159243
STARLINK-3073           
1 49135U 21082F   24212.40100607 -.00000545  00000+0 -37923-4 0  9997
2 49135  70.0003 295.2046 0002872 274.5802  85.5029 14.98330251159009
STARLINK-3084           
1 49136U 21082G   24212.39706325  .00000143  00000+0  19740-4 0  9994
2 49136  70.0011 315.2247 0002938 267.8132  92.2691 14.98334682158516
STARLINK-3055           
1 49137U 21082H   24212.86020014  .00000774  00000+0  72648-4 0  9997
2 49137  70.0002 314.0600 0003173 273.0988  86.9808 14.98343702158576
STARLINK-3058           
1 49138U 21082J   24212.62678161 -.00000663  00000+0 -47742-4 0  9990
2 49138  70.0009 334.6544 0002772 271.8015  88.2827 14.98333152158046
STARLINK-3057           
1 49139U 21082K   24212.39265985  .00000606  00000+0  58581-4 0  9999
2 49139  70.0002 295.2297 0002926 272.2073  87.8751 14.98329541158999
STARLINK-3118           
1 49140U 21082L   24212.91667824  .00108116  00000+0  79685-3 0  9999
2 49140  69.9971 267.7392 0005849 288.6558 288.6781 15.72538690159714
STARLINK-3093           
1 49141U 21082M   24212.62260611  .00000539  00000+0  52964-4 0  9993
2 49141  70.0005 334.6690 0003185 270.5310  89.5484 14.98338788159247
STARLINK-3042           
1 49142U 21082N   24212.51366196 -.00000468  00000+0 -31414-4 0  9997
2 49142  69.9997 294.9336 0003110 268.0990  91.9812 14.98331348159016
STARLINK-3109           
1 49143U 21082P   24212.72251525  .00000690  00000+0  65573-4 0  9998
2 49143  70.0021 314.4136 0002601 269.1279  90.9582 14.98334772158544
STARLINK-3100           
1 49144U 21082Q   24212.74778065  .00000155  00000+0  20750-4 0  9998
2 49144  70.0007 334.3324 0003132 267.3474  92.7326 14.98337098158063
STARLINK-3119           
1 49145U 21082R   24212.49697276 -.00000359  00000+0 -22318-4 0  9995
2 49145  70.0002 294.9649 0003080 267.7108  92.3698 14.98331459159008
STARLINK-3116           
1 49146U 21082S   24212.58482208 -.00000434  00000+0 -28587-4 0  9991
2 49146  70.0010 314.7631 0002914 268.9968  91.0857 14.98339531159688
STARLINK-3071           
1 49147U 21082T   24212.50949123 -.00000400  00000+0 -25741-4 0  9990
2 49147  69.9996 294.9511 0003119 267.9525  92.1277 14.98332107160188
STARLINK-3048           
1 49148U 21082U   24212.57647433  .00000262  00000+0  29769-4 0  9995
2 49148  70.0007 314.7617 0002952 265.7696  94.3126 14.98339446159652
STARLINK-3053           
1 49149U 21082V   24212.40981278  .00000462  00000+0  46547-4 0  9991
2 49149  70.0010 335.1896 0002939 267.5221  92.5601 14.98332209159201
STARLINK-3104           
1 49150U 21082W   24212.60591884 -.00000163  00000+0 -58422-5 0  9991
2 49150  70.0012 334.6992 0002895 270.2589  89.8238 14.98333199159232
STARLINK-3102           
1 49151U 21082X   24212.62215051  .00001069  00000+0  97402-4 0  9997
2 49151  70.0009 294.6570 0002621 255.0437 105.0432 14.98326038160239
STARLINK-3081           
1 49152U 21082Y   24212.39683092 -.00000279  00000+0 -15603-4 0  9993
2 49152  70.0003 295.2162 0003027 274.1239  85.9574 14.98333205160115
STARLINK-3072           
1 49153U 21082Z   24212.48028210 -.00000090  00000+0  23937-6 0  9990
2 49153  70.0006 295.0225 0002859 268.5401  91.5430 14.98332204158992
STARLINK-3068           
1 49154U 21082AA  24212.57230455 -.00000144  00000+0 -43086-5 0  9994
2 49154  70.0001 314.7758 0003010 266.9300  93.1514 14.98337289159606
STARLINK-3060           
1 49155U 21082AB  24212.47610763  .00000016  00000+0  91344-5 0  9994
2 49155  70.0004 295.0355 0002827 269.8806  90.2029 14.98334837160081
STARLINK-3085           
1 49156U 21082AC  24212.38848719  .00000215  00000+0  25774-4 0  9993
2 49156  69.9995 295.2426 0003126 267.7603  92.3198 14.98332501160079
STARLINK-3051           
1 49157U 21082AD  24212.56813636  .00001334  00000+0  11958-3 0  9995
2 49157  70.0001 314.7879 0003155 267.2719  92.8079 14.98340956159620
STARLINK-3083           
1 49158U 21082AE  24212.49916345  .00038076  00000+0  20329-2 0  9993
2 49158  69.9955 301.7359 0002064 303.9662  56.1309 15.14944283159944
STARLINK-3056           
1 49159U 21082AF  24212.60174663  .00001145  00000+0  10369-3 0  9997
2 49159  70.0024 334.7145 0002667 263.7071  96.3784 14.98334721159135
STARLINK-3095           
1 49160U 21082AG  24212.58922585  .00000224  00000+0  26562-4 0  9990
2 49160  70.0021 334.7281 0002845 267.5675  92.5158 14.98335174159108
STARLINK-3080           
1 49161U 21082AH  24212.79367647  .00001193  00000+0  10772-3 0  9997
2 49161  70.0010 334.2099 0002923 270.7454  89.3370 14.98340806159149
STARLINK-3082           
1 49162U 21082AJ  24212.58939628 -.00000609  00000+0 -43220-4 0  9997
2 49162  70.0011 334.7577 0003233 266.5026  93.5763 14.98332289159194
STARLINK-3088           
1 49163U 21082AK  24212.55978792  .00000328  00000+0  35316-4 0  9993
2 49163  70.0004 314.8160 0002988 266.0407  94.0410 14.98338088159691
STARLINK-3106           
1 49164U 21082AL  24212.55144360  .00000252  00000+0  28913-4 0  9991
2 49164  70.0007 314.8468 0003073 265.9669  94.1139 14.98337956159692
STARLINK-3052           
1 49165U 21082AM  24212.38477897 -.00001394  00000+0 -10900-3 0  9993
2 49165  70.0025 335.2755 0002648 272.8294  87.2562 14.98339022159203
STARLINK-3089           
1 49166U 21082AN  24212.55561580  .00000029  00000+0  10206-4 0  9998
2 49166  70.0003 314.8319 0003140 267.2492  92.8307 14.98336711159723
STARLINK-3054           
1 49167U 21082AP  24212.44318986  .00000219  00000+0  26165-4 0  9999
2 49167  70.0025 335.1051 0002914 269.7948  90.2877 14.98335362159217
STARLINK-3101           
1 49168U 21082AQ  24212.53890710  .00001730  00000+0  15270-3 0  9993
2 49168  70.0013 314.8599 0002858 266.9245  93.1587 14.98348660159723
